{"type": "FeatureCollection", "features": [ {"type": "Feature", "properties": {"norad_id": 30320, "name": "FENGYUN 1C DEB", "group": "fengyun-1c-debris", "lat": 79.92283486148276, "lon": -63.64527704150156, "alt_km": 952.7436041520132, "timestamp": "2025-12-17T10:52:54.628846+00:00", "meta": {"OBJECT_NAME": "FENGYUN 1C DEB", "OBJECT_ID": "1999-025AAH", "EPOCH": "2025-12-16T17:49:45.085152", "MEAN_MOTION": 13.98556725, "ECCENTRICITY": 0.00850504, "INCLINATION": 99.1872, "RA_OF_ASC_NODE": 50.0483, "ARG_OF_PERICENTER": 283.517, "MEAN_ANOMALY": 195.0763, "EPHEMERIS_TYPE": 0, "CLASSIFICATION_TYPE": "U", "NORAD_CAT_ID": 30320, "ELEMENT_SET_NO": 999, "REV_AT_EPOCH": 96463, "BSTAR": 0.00012430824, "MEAN_MOTION_DOT": 1.38e-06, "MEAN_MOTION_DDOT": 0}, "tle": {"line1": "1 30320U 99025AAH 25350.74288293  .00000138  00000+0  12431-3 0  9996", "line2": "2 30320  99.1872  50.0483 0085050 283.5170 195.0763 13.98556725964630"}}, "geometry": {"type": "Point", "coordinates": [-63.64527704150156, 79.92283486148276]}}, {"type": "Feature", "properties": {"norad_id": 30321, "name": "FENGYUN 1C DEB", "group": "fengyun-1c-debris", "lat": 81.01611194245606, "lon": -115.15253813818205, "alt_km": 857.3909682080875, "timestamp": "2025-12-17T10:52:54.628856+00:00", "meta": {"OBJECT_NAME": "FENGYUN 1C DEB", "OBJECT_ID": "1999-025AAJ", "EPOCH": "2025-12-16T18:19:05.397024", "MEAN_MOTION": 14.16645954, "ECCENTRICITY": 0.00600762, "INCLINATION": 98.6562, "RA_OF_ASC_NODE": 349.6902, "ARG_OF_PERICENTER": 225.0808, "MEAN_ANOMALY": 310.0816, "EPHEMERIS_TYPE": 0, "CLASSIFICATION_TYPE": "U", "NORAD_CAT_ID": 30321, "ELEMENT_SET_NO": 999, "REV_AT_EPOCH": 97600, "BSTAR": 0.00028808506, "MEAN_MOTION_DOT": 5.42e-06, "MEAN_MOTION_DDOT": 0}, "tle": {"line1": "1 30321U 99025AAJ 25350.76325691  .00000542  00000+0  28809-3 0  9998", "line2": "2 30321  98.6562 349.6902 0060076 225.0808 310.0816 14.16645954976000"}}, "geometry": {"type": "Point", "coordinates": [-115.15253813818205, 81.01611194245606]}}, {"type": "Feature", "properties": {"norad_id": 30322, "name": "FENGYUN 1C DEB", "group": "fengyun-1c-debris", "lat": -71.37049342594213, "lon": -125.2042881925666, "alt_km": 816.7352704777995, "timestamp": "2025-12-17T10:52:54.628866+00:00", "meta": {"OBJECT_NAME": "FENGYUN 1C DEB", "OBJECT_ID": "1999-025AAK", "EPOCH": "2025-12-16T13:01:39.598752", "MEAN_MOTION": 14.06114903, "ECCENTRICITY": 0.01266581, "INCLINATION": 98.3983, "RA_OF_ASC_NODE": 207.9602, "ARG_OF_PERICENTER": 242.2782, "MEAN_ANOMALY": 116.5493, "EPHEMERIS_TYPE": 0, "CLASSIFICATION_TYPE": "U", "NORAD_CAT_ID": 30322, "ELEMENT_SET_NO": 999, "REV_AT_EPOCH": 96253, "BSTAR": 0.0012008302, "MEAN_MOTION_DOT": 2.081e-05, "MEAN_MOTION_DDOT": 0}, "tle": {"line1": "1 30322U 99025AAK 25350.54281943  .00002081  00000+0  12008-2 0  9999", "line2": "2 30322  98.3983 207.9602 0126658 242.2782 116.5493 14.06114903962536"}}, "geometry": {"type": "Point", "coordinates": [-125.2042881925666, -71.37049342594213]}}, {"type": "Feature", "properties": {"norad_id": 30325, "name": "FENGYUN 1C DEB", "group": "fengyun-1c-debris", "lat": 6.413042648846272, "lon": 9.668648668982913, "alt_km": 871.1755499727515, "timestamp": "2025-12-17T10:52:54.628876+00:00", "meta": {"OBJECT_NAME": "FENGYUN 1C DEB", "OBJECT_ID": "1999-025AAL", "EPOCH": "2025-12-16T00:46:04.431072", "MEAN_MOTION": 14.09105459, "ECCENTRICITY": 0.00153215, "INCLINATION": 98.7327, "RA_OF_ASC_NODE": 9.2811, "ARG_OF_PERICENTER": 243.2954, "MEAN_ANOMALY": 116.6648, "EPHEMERIS_TYPE": 0, "CLASSIFICATION_TYPE": "U", "NORAD_CAT_ID": 30325, "ELEMENT_SET_NO": 999, "REV_AT_EPOCH": 97062, "BSTAR": 5.296989e-05, "MEAN_MOTION_DOT": 4.9e-07, "MEAN_MOTION_DDOT": 0}, "tle": {"line1": "1 30325U 99025AAL 25350.03199573  .00000049  00000+0  52970-4 0  9999", "line2": "2 30325  98.7327   9.2811 0015321 243.2954 116.6648 14.09105459970627"}}, "geometry": {"type": "Point", "coordinates": [9.668648668982913, 6.413042648846272]}}, {"type": "Feature", "properties": {"norad_id": 30326, "name": "FENGYUN 1C DEB", "group": "fengyun-1c-debris", "lat": -67.67282380587599, "lon": 36.645434277867125, "alt_km": 1015.6458575590632, "timestamp": "2025-12-17T10:52:54.628886+00:00", "meta": {"OBJECT_NAME": "FENGYUN 1C DEB", "OBJECT_ID": "1999-025AAM", "EPOCH": "2025-12-16T16:20:47.757984", "MEAN_MOTION": 13.85477109, "ECCENTRICITY": 0.014224, "INCLINATION": 98.654, "RA_OF_ASC_NODE": 237.6989, "ARG_OF_PERICENTER": 19.8745, "MEAN_ANOMALY": 340.7877, "EPHEMERIS_TYPE": 0, "CLASSIFICATION_TYPE": "U", "NORAD_CAT_ID": 30326, "ELEMENT_SET_NO": 999, "REV_AT_EPOCH": 95510, "BSTAR": 0.00018527331, "MEAN_MOTION_DOT": 1.89e-06, "MEAN_MOTION_DDOT": 0}, "tle": {"line1": "1 30326U 99025AAM 25350.68110831  .00000189  00000+0  18527-3 0  9995", "line2": "2 30326  98.6540 237.6989 0142240  19.8745 340.7877 13.85477109955100"}}, "geometry": {"type": "Point", "coordinates": [36.645434277867125, -67.67282380587599]}}, {"type": "Feature", "properties": {"norad_id": 30327, "name": "FENGYUN 1C DEB", "group": "fengyun-1c-debris", "lat": -46.39689985511299, "lon": -105.49151434073993, "alt_km": 923.1608567798357, "timestamp": "2025-12-17T10:52:54.628896+00:00", "meta": {"OBJECT_NAME": "FENGYUN 1C DEB", "OBJECT_ID": "1999-025AAN", "EPOCH": "2025-12-16T16:44:54.856032", "MEAN_MOTION": 14.18012195, "ECCENTRICITY": 0.01172419, "INCLINATION": 98.4445, "RA_OF_ASC_NODE": 244.8159, "ARG_OF_PERICENTER": 131.3399, "MEAN_ANOMALY": 286.9772, "EPHEMERIS_TYPE": 0, "CLASSIFICATION_TYPE": "U", "NORAD_CAT_ID": 30327, "ELEMENT_SET_NO": 999, "REV_AT_EPOCH": 96499, "BSTAR": 0.0012286574, "MEAN_MOTION_DOT": 2.654e-05, "MEAN_MOTION_DDOT": 0}, "tle": {"line1": "1 30327U 99025AAN 25350.69785713  .00002654  00000+0  12287-2 0  9999", "line2": "2 30327  98.4445 244.8159 0117241 131.3399 286.9772 14.18012195964999"}}, "geometry": {"type": "Point", "coordinates": [-105.49151434073993, -46.39689985511299]}}, {"type": "Feature", "properties": {"norad_id": 30328, "name": "FENGYUN 1C DEB", "group": "fengyun-1c-debris", "lat": 14.562162400580313, "lon": -0.8461951361350332, "alt_km": 854.2396947634033, "timestamp": "2025-12-17T10:52:54.628906+00:00", "meta": {"OBJECT_NAME": "FENGYUN 1C DEB", "OBJECT_ID": "1999-025AAP", "EPOCH": "2025-12-16T23:11:47.455008", "MEAN_MOTION": 14.12475843, "ECCENTRICITY": 0.00059588, "INCLINATION": 98.6862, "RA_OF_ASC_NODE": 0.9578, "ARG_OF_PERICENTER": 141.6843, "MEAN_ANOMALY": 278.8167, "EPHEMERIS_TYPE": 0, "CLASSIFICATION_TYPE": "U", "NORAD_CAT_ID": 30328, "ELEMENT_SET_NO": 999, "REV_AT_EPOCH": 97324, "BSTAR": 0.00013838121, "MEAN_MOTION_DOT": 2.13e-06, "MEAN_MOTION_DDOT": 0}, "tle": {"line1": "1 30328U 99025AAP 25350.96652147  .00000213  00000+0  13838-3 0  9997", "line2": "2 30328  98.6862   0.9578 0005958 141.6843 278.8167 14.12475843973243"}}, "geometry": {"type": "Point", "coordinates": [-0.8461951361350332, 14.562162400580313]}}, {"type": "Feature", "properties": {"norad_id": 30329, "name": "FENGYUN 1C DEB", "group": "fengyun-1c-debris", "lat": -8.9106528137517, "lon": -87.75317818277837, "alt_km": 855.1410278620424, "timestamp": "2025-12-17T10:52:54.628917+00:00", "meta": {"OBJECT_NAME": "FENGYUN 1C DEB", "OBJECT_ID": "1999-025AAQ", "EPOCH": "2025-12-16T07:48:28.173312", "MEAN_MOTION": 13.86745371, "ECCENTRICITY": 0.01422667, "INCLINATION": 99.262, "RA_OF_ASC_NODE": 269.6639, "ARG_OF_PERICENTER": 25.9699, "MEAN_ANOMALY": 97.2772, "EPHEMERIS_TYPE": 0, "CLASSIFICATION_TYPE": "U", "NORAD_CAT_ID": 30329, "ELEMENT_SET_NO": 999, "REV_AT_EPOCH": 95460, "BSTAR": 0.00043832099, "MEAN_MOTION_DOT": 5.09e-06, "MEAN_MOTION_DDOT": 0}, "tle": {"line1": "1 30329U 99025AAQ 25350.32532608  .00000509  00000+0  43832-3 0  9992", "line2": "2 30329  99.2620 269.6639 0142266  25.9699  97.2772 13.86745371954602"}}, "geometry": {"type": "Point", "coordinates": [-87.75317818277837, -8.9106528137517]}}, {"type": "Feature", "properties": {"norad_id": 30330, "name": "FENGYUN 1C DEB", "group": "fengyun-1c-debris", "lat": -50.14211181988288, "lon": -5.658933714866832, "alt_km": 1062.8754699850579, "timestamp": "2025-12-17T10:52:54.628926+00:00", "meta": {"OBJECT_NAME": "FENGYUN 1C DEB", "OBJECT_ID": "1999-025AAR", "EPOCH": "2025-12-16T18:36:52.685856", "MEAN_MOTION": 13.82070984, "ECCENTRICITY": 0.01876377, "INCLINATION": 98.8861, "RA_OF_ASC_NODE": 342.9017, "ARG_OF_PERICENTER": 173.8917, "MEAN_ANOMALY": 3.1779, "EPHEMERIS_TYPE": 0, "CLASSIFICATION_TYPE": "U", "NORAD_CAT_ID": 30330, "ELEMENT_SET_NO": 999, "REV_AT_EPOCH": 94713, "BSTAR": 0.0011596889, "MEAN_MOTION_DOT": 1.386e-05, "MEAN_MOTION_DDOT": 0}, "tle": {"line1": "1 30330U 99025AAR 25350.77560979  .00001386  00000+0  11597-2 0  9991", "line2": "2 30330  98.8861 342.9017 0187637 173.8917   3.1779 13.82070984947138"}}, "geometry": {"type": "Point", "coordinates": [-5.658933714866832, -50.14211181988288]}}, {"type": "Feature", "properties": {"norad_id": 30331, "name": "FENGYUN 1C DEB", "group": "fengyun-1c-debris", "lat": 79.96921437253724, "lon": -37.15509726355867, "alt_km": 893.7859045632822, "timestamp": "2025-12-17T10:52:54.628936+00:00", "meta": {"OBJECT_NAME": "FENGYUN 1C DEB", "OBJECT_ID": "1999-025AAS", "EPOCH": "2025-12-16T14:27:04.392288", "MEAN_MOTION": 13.97834039, "ECCENTRICITY": 0.00961496, "INCLINATION": 98.9562, "RA_OF_ASC_NODE": 25.0839, "ARG_OF_PERICENTER": 357.3572, "MEAN_ANOMALY": 125.5774, "EPHEMERIS_TYPE": 0, "CLASSIFICATION_TYPE": "U", "NORAD_CAT_ID": 30331, "ELEMENT_SET_NO": 999, "REV_AT_EPOCH": 96173, "BSTAR": 0.00037412723, "MEAN_MOTION_DOT": 5.07e-06, "MEAN_MOTION_DDOT": 0}, "tle": {"line1": "1 30331U 99025AAS 25350.60213417  .00000507  00000+0  37413-3 0  9996", "line2": "2 30331  98.9562  25.0839 0096149 357.3572 125.5774 13.97834039961733"}}, "geometry": {"type": "Point", "coordinates": [-37.15509726355867, 79.96921437253724]}}]}